SL-16 R/B               
1 22566U 93016B   26032.16908475  .00000190  00000+0  12201-3 0  9991
2 22566  71.0084 291.8889 0009769   6.0440 354.0799 14.15302737697005
COSMOS 2242             
1 22626U 93024A   26032.26105405  .00001947  00000+0  16907-3 0  9998
2 22626  82.5207 301.5553 0018023  69.4610 290.8544 14.96386636774941
SL-16 R/B               
1 22803U 93059B   26032.48041279  .00000143  00000+0  94472-4 0  9996
2 22803  70.9895  87.4887 0019521 265.8859  94.0034 14.17223649674408
ARIANE 40 R/B           
1 22830U 93061H   26032.17699409  .00000260  00000+0  11124-3 0  9991
2 22830  98.4994 101.7711 0011239  37.7431 322.4539 14.32840438688871
COSMOS 2278             
1 23087U 94023A   26032.45768270 -.00000221  00000+0 -90686-4 0  9999
2 23087  71.0513 250.9021 0006330  81.8722 278.3118 14.14365643639687
SL-16 R/B               
1 23088U 94023B   26032.44990135 -.00000241  00000+0 -99718-4 0  9993
2 23088  71.0000 146.9948 0004414 318.9862  41.0928 14.15004509640960
SL-16 R/B               
1 23343U 94074B   26032.13150106  .00000549  00000+0  80271-4 0  9998
2 23343  97.7154  64.4224 0006262 353.5192  53.4908 14.79361739681842
SL-16 R/B               
1 23405U 94077B   26032.44566781 -.00000205  00000+0 -80167-4 0  9999
2 23405  70.9817  68.7411 0004629 244.4693 115.5951 14.15557049611105
ARIANE 40+ R/B          
1 23561U 95021B   26032.33735526  .00000346  00000+0  12428-3 0  9993
2 23561  98.4571 104.2988 0005770 246.4416 206.2046 14.39744002614017
SL-16 R/B               
1 23705U 95058B   26032.30954230  .00000111  00000+0  80979-4 0  9992
2 23705  71.0190 256.6350 0012731 184.9425 175.1575 14.15488255562705
SL-16 R/B               
1 24298U 96051B   26032.05553427  .00000074  00000+0  66770-4 0  9990
2 24298  70.7567 252.7817 0018081 198.6858 161.3600 14.12405110516473
ORBVIEW 2 (SEASTAR)     
1 24883U 97037A   26032.45125377  .00000323  00000+0  12844-3 0  9997
2 24883  98.8505 195.8159 0002666 147.0286 213.1065 14.35465014503276
