CCSDS_OMM_VERS = 2.0
CREATION_DATE  = 
ORIGINATOR     = 

OBJECT_NAME    = SL-16 R/B
OBJECT_ID      = 1993-016B
CENTER_NAME    = EARTH
REF_FRAME      = TEME
TIME_SYSTEM    = UTC
MEAN_ELEMENT_THEORY = SGP/SGP4

EPOCH          = 2026-02-01T04:03:28.922400
MEAN_MOTION    = 14.15302737
ECCENTRICITY   = .0009769
INCLINATION    = 71.0084
RA_OF_ASC_NODE = 291.8889
ARG_OF_PERICENTER = 6.0440
MEAN_ANOMALY   = 354.0799

EPHEMERIS_TYPE = 0
CLASSIFICATION_TYPE = U
NORAD_CAT_ID   = 22566
ELEMENT_SET_NO = 999
REV_AT_EPOCH   = 69700
BSTAR          = .12201E-3
MEAN_MOTION_DOT = .19E-5
MEAN_MOTION_DDOT = 0

CCSDS_OMM_VERS = 2.0
CREATION_DATE  = 
ORIGINATOR     = 

OBJECT_NAME    = COSMOS 2242
OBJECT_ID      = 1993-024A
CENTER_NAME    = EARTH
REF_FRAME      = TEME
TIME_SYSTEM    = UTC
MEAN_ELEMENT_THEORY = SGP/SGP4

EPOCH          = 2026-02-01T06:15:55.069920
MEAN_MOTION    = 14.96386636
ECCENTRICITY   = .0018023
INCLINATION    = 82.5207
RA_OF_ASC_NODE = 301.5553
ARG_OF_PERICENTER = 69.4610
MEAN_ANOMALY   = 290.8544

EPHEMERIS_TYPE = 0
CLASSIFICATION_TYPE = U
NORAD_CAT_ID   = 22626
ELEMENT_SET_NO = 999
REV_AT_EPOCH   = 77494
BSTAR          = .16907E-3
MEAN_MOTION_DOT = .1947E-4
MEAN_MOTION_DDOT = 0

CCSDS_OMM_VERS = 2.0
CREATION_DATE  = 
ORIGINATOR     = 

OBJECT_NAME    = SL-16 R/B
OBJECT_ID      = 1993-059B
CENTER_NAME    = EARTH
REF_FRAME      = TEME
TIME_SYSTEM    = UTC
MEAN_ELEMENT_THEORY = SGP/SGP4

EPOCH          = 2026-02-01T11:31:47.665056
MEAN_MOTION    = 14.17223649
ECCENTRICITY   = .0019521
INCLINATION    = 70.9895
RA_OF_ASC_NODE = 87.4887
ARG_OF_PERICENTER = 265.8859
MEAN_ANOMALY   = 94.0034

EPHEMERIS_TYPE = 0
CLASSIFICATION_TYPE = U
NORAD_CAT_ID   = 22803
ELEMENT_SET_NO = 999
REV_AT_EPOCH   = 67440
BSTAR          = .94472E-4
MEAN_MOTION_DOT = .143E-5
MEAN_MOTION_DDOT = 0

CCSDS_OMM_VERS = 2.0
CREATION_DATE  = 
ORIGINATOR     = 

OBJECT_NAME    = ARIANE 40 R/B
OBJECT_ID      = 1993-061H
CENTER_NAME    = EARTH
REF_FRAME      = TEME
TIME_SYSTEM    = UTC
MEAN_ELEMENT_THEORY = SGP/SGP4

EPOCH          = 2026-02-01T04:14:52.289376
MEAN_MOTION    = 14.32840438
ECCENTRICITY   = .0011239
INCLINATION    = 98.4994
RA_OF_ASC_NODE = 101.7711
ARG_OF_PERICENTER = 37.7431
MEAN_ANOMALY   = 322.4539

EPHEMERIS_TYPE = 0
CLASSIFICATION_TYPE = U
NORAD_CAT_ID   = 22830
ELEMENT_SET_NO = 999
REV_AT_EPOCH   = 68887
BSTAR          = .11124E-3
MEAN_MOTION_DOT = .26E-5
MEAN_MOTION_DDOT = 0

CCSDS_OMM_VERS = 2.0
CREATION_DATE  = 
ORIGINATOR     = 

OBJECT_NAME    = COSMOS 2278
OBJECT_ID      = 1994-023A
CENTER_NAME    = EARTH
REF_FRAME      = TEME
TIME_SYSTEM    = UTC
MEAN_ELEMENT_THEORY = SGP/SGP4

EPOCH          = 2026-02-01T10:59:03.785280
MEAN_MOTION    = 14.14365643
ECCENTRICITY   = .000633
INCLINATION    = 71.0513
RA_OF_ASC_NODE = 250.9021
ARG_OF_PERICENTER = 81.8722
MEAN_ANOMALY   = 278.3118

EPHEMERIS_TYPE = 0
CLASSIFICATION_TYPE = U
NORAD_CAT_ID   = 23087
ELEMENT_SET_NO = 999
REV_AT_EPOCH   = 63968
BSTAR          = -.90686E-4
MEAN_MOTION_DOT = -.221E-5
MEAN_MOTION_DDOT = 0

CCSDS_OMM_VERS = 2.0
CREATION_DATE  = 
ORIGINATOR     = 

OBJECT_NAME    = SL-16 R/B
OBJECT_ID      = 1994-023B
CENTER_NAME    = EARTH
REF_FRAME      = TEME
TIME_SYSTEM    = UTC
MEAN_ELEMENT_THEORY = SGP/SGP4

EPOCH          = 2026-02-01T10:47:51.476640
MEAN_MOTION    = 14.15004509
ECCENTRICITY   = .0004414
INCLINATION    = 71.0000
RA_OF_ASC_NODE = 146.9948
ARG_OF_PERICENTER = 318.9862
MEAN_ANOMALY   = 41.0928

EPHEMERIS_TYPE = 0
CLASSIFICATION_TYPE = U
NORAD_CAT_ID   = 23088
ELEMENT_SET_NO = 999
REV_AT_EPOCH   = 64096
BSTAR          = -.99718E-4
MEAN_MOTION_DOT = -.241E-5
MEAN_MOTION_DDOT = 0

CCSDS_OMM_VERS = 2.0
CREATION_DATE  = 
ORIGINATOR     = 

OBJECT_NAME    = SL-16 R/B
OBJECT_ID      = 1994-074B
CENTER_NAME    = EARTH
REF_FRAME      = TEME
TIME_SYSTEM    = UTC
MEAN_ELEMENT_THEORY = SGP/SGP4

EPOCH          = 2026-02-01T03:09:21.691584
MEAN_MOTION    = 14.79361739
ECCENTRICITY   = .0006262
INCLINATION    = 97.7154
RA_OF_ASC_NODE = 64.4224
ARG_OF_PERICENTER = 353.5192
MEAN_ANOMALY   = 53.4908

EPHEMERIS_TYPE = 0
CLASSIFICATION_TYPE = U
NORAD_CAT_ID   = 23343
ELEMENT_SET_NO = 999
REV_AT_EPOCH   = 68184
BSTAR          = .80271E-4
MEAN_MOTION_DOT = .549E-5
MEAN_MOTION_DDOT = 0

CCSDS_OMM_VERS = 2.0
CREATION_DATE  = 
ORIGINATOR     = 

OBJECT_NAME    = SL-16 R/B
OBJECT_ID      = 1994-077B
CENTER_NAME    = EARTH
REF_FRAME      = TEME
TIME_SYSTEM    = UTC
MEAN_ELEMENT_THEORY = SGP/SGP4

EPOCH          = 2026-02-01T10:41:45.698784
MEAN_MOTION    = 14.15557049
ECCENTRICITY   = .0004629
INCLINATION    = 70.9817
RA_OF_ASC_NODE = 68.7411
ARG_OF_PERICENTER = 244.4693
MEAN_ANOMALY   = 115.5951

EPHEMERIS_TYPE = 0
CLASSIFICATION_TYPE = U
NORAD_CAT_ID   = 23405
ELEMENT_SET_NO = 999
REV_AT_EPOCH   = 61110
BSTAR          = -.80167E-4
MEAN_MOTION_DOT = -.205E-5
MEAN_MOTION_DDOT = 0

CCSDS_OMM_VERS = 2.0
CREATION_DATE  = 
ORIGINATOR     = 

OBJECT_NAME    = ARIANE 40+ R/B
OBJECT_ID      = 1995-021B
CENTER_NAME    = EARTH
REF_FRAME      = TEME
TIME_SYSTEM    = UTC
MEAN_ELEMENT_THEORY = SGP/SGP4

EPOCH          = 2026-02-01T08:05:47.494464
MEAN_MOTION    = 14.39744002
ECCENTRICITY   = .000577
INCLINATION    = 98.4571
RA_OF_ASC_NODE = 104.2988
ARG_OF_PERICENTER = 246.4416
MEAN_ANOMALY   = 206.2046

EPHEMERIS_TYPE = 0
CLASSIFICATION_TYPE = U
NORAD_CAT_ID   = 23561
ELEMENT_SET_NO = 999
REV_AT_EPOCH   = 61401
BSTAR          = .12428E-3
MEAN_MOTION_DOT = .346E-5
MEAN_MOTION_DDOT = 0

CCSDS_OMM_VERS = 2.0
CREATION_DATE  = 
ORIGINATOR     = 

OBJECT_NAME    = SL-16 R/B
OBJECT_ID      = 1995-058B
CENTER_NAME    = EARTH
REF_FRAME      = TEME
TIME_SYSTEM    = UTC
MEAN_ELEMENT_THEORY = SGP/SGP4

EPOCH          = 2026-02-01T07:25:44.454720
MEAN_MOTION    = 14.15488255
ECCENTRICITY   = .0012731
INCLINATION    = 71.0190
RA_OF_ASC_NODE = 256.6350
ARG_OF_PERICENTER = 184.9425
MEAN_ANOMALY   = 175.1575

EPHEMERIS_TYPE = 0
CLASSIFICATION_TYPE = U
NORAD_CAT_ID   = 23705
ELEMENT_SET_NO = 999
REV_AT_EPOCH   = 56270
BSTAR          = .80979E-4
MEAN_MOTION_DOT = .111E-5
MEAN_MOTION_DDOT = 0

CCSDS_OMM_VERS = 2.0
CREATION_DATE  = 
ORIGINATOR     = 

OBJECT_NAME    = SL-16 R/B
OBJECT_ID      = 1996-051B
CENTER_NAME    = EARTH
REF_FRAME      = TEME
TIME_SYSTEM    = UTC
MEAN_ELEMENT_THEORY = SGP/SGP4

EPOCH          = 2026-02-01T01:19:58.160928
MEAN_MOTION    = 14.12405110
ECCENTRICITY   = .0018081
INCLINATION    = 70.7567
RA_OF_ASC_NODE = 252.7817
ARG_OF_PERICENTER = 198.6858
MEAN_ANOMALY   = 161.3600

EPHEMERIS_TYPE = 0
CLASSIFICATION_TYPE = U
NORAD_CAT_ID   = 24298
ELEMENT_SET_NO = 999
REV_AT_EPOCH   = 51647
BSTAR          = .6677E-4
MEAN_MOTION_DOT = .74E-6
MEAN_MOTION_DDOT = 0

CCSDS_OMM_VERS = 2.0
CREATION_DATE  = 
ORIGINATOR     = 

OBJECT_NAME    = ORBVIEW 2 (SEASTAR)
OBJECT_ID      = 1997-037A
CENTER_NAME    = EARTH
REF_FRAME      = TEME
TIME_SYSTEM    = UTC
MEAN_ELEMENT_THEORY = SGP/SGP4

EPOCH          = 2026-02-01T10:49:48.325728
MEAN_MOTION    = 14.35465014
ECCENTRICITY   = .0002666
INCLINATION    = 98.8505
RA_OF_ASC_NODE = 195.8159
ARG_OF_PERICENTER = 147.0286
MEAN_ANOMALY   = 213.1065

EPHEMERIS_TYPE = 0
CLASSIFICATION_TYPE = U
NORAD_CAT_ID   = 24883
ELEMENT_SET_NO = 999
REV_AT_EPOCH   = 50327
BSTAR          = .12844E-3
MEAN_MOTION_DOT = .323E-5
MEAN_MOTION_DDOT = 0

